[{"OBJECT_NAME":"STARLINK-4014","OBJECT_ID":"2022-053AE","EPOCH":"2026-03-09T11:39:56.556000","MEAN_MOTION":15.08827681,"ECCENTRICITY":0.00011443,"INCLINATION":53.2168,"RA_OF_ASC_NODE":145.039,"ARG_OF_PERICENTER":96.0818,"MEAN_ANOMALY":264.0305,"EPHEMERIS_TYPE":0,"CLASSIFICATION_TYPE":"U","NORAD_CAT_ID":52684,"ELEMENT_SET_NO":999,"REV_AT_EPOCH":21110,"BSTAR":-0.00011274209,"MEAN_MOTION_DOT":-2.081e-5,"MEAN_MOTION_DDOT":0},{"OBJECT_NAME":"JILIN-01 KUANFU 02B 5","OBJECT_ID":"2024-169E","EPOCH":"2026-03-09T22:46:28.718400","MEAN_MOTION":15.09244096,"ECCENTRICITY":0.00111722,"INCLINATION":97.556,"RA_OF_ASC_NODE":160.0628,"ARG_OF_PERICENTER":294.0678,"MEAN_ANOMALY":65.9381,"EPHEMERIS_TYPE":0,"CLASSIFICATION_TYPE":"U","NORAD_CAT_ID":61193,"ELEMENT_SET_NO":999,"REV_AT_EPOCH":8086,"BSTAR":0.00034816655,"MEAN_MOTION_DOT":5.486e-5,"MEAN_MOTION_DDOT":0}]
